NORAD_CAT_ID,OBJECT_NAME,OBJECT_TYPE,EPOCH,MEAN_MOTION,ECCENTRICITY,INCLINATION,RA_OF_ASC_NODE,ARG_OF_PERICENTER,MEAN_ANOMALY,BSTAR,MEAN_MOTION_DOT,MEAN_MOTION_DDOT,TLE_LINE0,TLE_LINE1,TLE_LINE2,SEMIMAJOR_AXIS,PERIOD,APOGEE,PERIGEE,DECAYED
51132.0,STARLINK-3393,PAYLOAD,2024-03-16 23:55:29,15.08836999,0.000117,53.2169,303.4116,87.4508,272.6618,6.2707e-05,7.1e-06,0.0,0 STARLINK-3393,1 51132U 22005AE  24076.99686689  .00000710  00000-0  62707-4 0  9995,2 51132  53.2169 303.4116 0001170  87.4508 272.6618 15.08836999119628,6917.89,95.438,540.564,538.945,0.0
51132.0,STARLINK-3393,PAYLOAD,2024-03-17 22:10:53,15.0883577,0.0001256,53.2169,299.2491,82.0636,278.0499,3.2563e-05,2.3e-06,0.0,0 STARLINK-3393,1 51132U 22005AE  24077.92423122  .00000230  00000-0  32563-4 0  9994,2 51132  53.2169 299.2491 0001256  82.0636 278.0499 15.08835770119762,6917.893,95.438,540.627,538.889,0.0
51132.0,STARLINK-3393,PAYLOAD,2024-03-17 23:46:16,15.08840647,0.0001379,53.2173,298.9498,103.3171,256.7975,3.8682e-05,3.28e-06,0.0,0 STARLINK-3393,1 51132U 22005AE  24077.99046813  .00000328  00000-0  38682-4 0  9995,2 51132  53.2173 298.9498 0001379 103.3171 256.7975 15.08840647120894,6917.878,95.438,540.697,538.789,0.0
51132.0,STARLINK-3393,PAYLOAD,2024-03-18 22:01:40,15.0884128,0.0001338,53.2174,294.7873,105.7044,254.4095,5.0539e-05,5.17e-06,0.0,0 STARLINK-3393,1 51132U 22005AE  24078.91782656  .00000517  00000-0  50539-4 0  9995,2 51132  53.2174 294.7873 0001338 105.7044 254.4095 15.08841280119919,6917.876,95.437,540.667,538.816,0.0
51132.0,STARLINK-3393,PAYLOAD,2024-03-18 23:37:03,15.08843158,0.0001291,53.2174,294.4889,101.3288,258.785,4.3379e-05,4.03e-06,0.0,0 STARLINK-3393,1 51132U 22005AE  24078.98406561  .00000403  00000-0  43379-4 0  9998,2 51132  53.2174 294.4889 0001291 101.3288 258.7850 15.08843158119926,6917.871,95.437,540.629,538.843,0.0
51132.0,STARLINK-3393,PAYLOAD,2024-03-19 20:17:04,15.08841456,0.0001368,53.2182,290.6177,76.3016,283.8128,1.6801e-05,-2.1e-07,0.0,0 STARLINK-3393,1 51132U 22005AE  24079.84518969 -.00000021  00000-0  16801-4 0  9997,2 51132  53.2182 290.6177 0001368  76.3016 283.8128 15.08841456121174,6917.876,95.437,540.687,538.795,0.0
51132.0,STARLINK-3393,PAYLOAD,2024-03-20 20:07:51,15.08839383,0.0001711,53.2188,286.1566,64.6118,295.5051,4.3701e-05,4.07e-06,0.0,0 STARLINK-3393,1 51132U 22005AE  24080.83879192  .00000407  00000-0  43701-4 0  9992,2 51132  53.2188 286.1566 0001711  64.6118 295.5051 15.08839383120201,6917.882,95.438,540.931,538.564,0.0
51132.0,STARLINK-3393,PAYLOAD,2024-03-20 23:18:37,15.08828664,0.0001383,53.2172,285.5669,82.5233,277.5916,0.00020975,3.051e-05,0.0,0 STARLINK-3393,1 51132U 22005AE  24080.97127215  .00003051  00000-0  20975-3 0  9994,2 51132  53.2172 285.5669 0001383  82.5233 277.5916 15.08828664121349,6917.915,95.438,540.737,538.823,0.0
51132.0,STARLINK-3393,PAYLOAD,2024-03-21 13:37:06,15.08834782,0.0001553,53.2172,282.8924,119.2724,240.8423,3.2213e-05,2.25e-06,0.0,0 STARLINK-3393,1 51132U 22005AE  24081.56743389  .00000225  00000-0  32213-4 0  9995,2 51132  53.2172 282.8924 0001553 119.2724 240.8423 15.08834782120315,6917.896,95.438,540.836,538.687,0.0
51132.0,STARLINK-3393,PAYLOAD,2024-03-21 19:58:39,15.08830912,0.0001465,53.2173,281.7005,121.5188,238.5948,-8.8777e-06,-4.29e-06,0.0,0 STARLINK-3393,1 51132U 22005AE  24081.83239858 -.00000429  00000-0 -88777-5 0  9991,2 51132  53.2173 281.7005 0001465 121.5188 238.5948 15.08830912120357,6917.908,95.438,540.787,538.76,0.0
51132.0,STARLINK-3393,PAYLOAD,2024-03-22 13:27:53,15.08838872,0.0001261,53.2174,278.4284,123.3314,236.7799,3.5536e-05,2.78e-06,0.0,0 STARLINK-3393,1 51132U 22005AE  24082.56103470  .00000278  00000-0  35536-4 0  9996,2 51132  53.2174 278.4284 0001261 123.3314 236.7799 15.08838872120464,6917.884,95.438,540.621,538.876,0.0
51132.0,STARLINK-3393,PAYLOAD,2024-03-22 18:14:02,15.08847434,0.0001154,53.216,277.5417,98.0401,262.0722,0.00010352,1.36e-05,0.0,0 STARLINK-3393,1 51132U 22005AE  24082.75974926  .00001360  00000-0  10352-3 0  9990,2 51132  53.2160 277.5417 0001154  98.0401 262.0722 15.08847434121613,6917.858,95.437,540.521,538.924,0.0
51132.0,STARLINK-3393,PAYLOAD,2024-03-23 19:40:13,15.08833316,0.0001302,53.2167,272.7847,86.3099,273.8042,0.00014704,2.053e-05,0.0,0 STARLINK-3393,1 51132U 22005AE  24083.81959755  .00002053  00000-0  14704-3 0  9996,2 51132  53.2167 272.7847 0001302  86.3099 273.8042 15.08833316121778,6917.901,95.438,540.667,538.865,0.0
51132.0,STARLINK-3393,PAYLOAD,2024-03-23 22:50:56,15.08868796,0.0001127,53.2163,272.1891,86.2266,273.8855,0.00037987,5.768e-05,0.0,0 STARLINK-3393,1 51132U 22005AE  24083.95204714  .00005768  00000-0  37987-3 0  9993,2 51132  53.2163 272.1891 0001127  86.2266 273.8855 15.08868796121791,6917.792,95.436,540.437,538.878,0.0
51132.0,STARLINK-3393,PAYLOAD,2024-03-24 11:34:05,15.08823095,0.000146,53.216,269.8096,60.5886,299.5252,-0.00021274,-3.671e-05,0.0,0 STARLINK-3393,1 51132U 22005AE  24084.48200737 -.00003671  00000-0 -21274-3 0  9998,2 51132  53.2160 269.8096 0001460  60.5886 299.5252 15.08823095121879,6917.932,95.439,540.807,538.787,0.0
51132.0,STARLINK-3393,PAYLOAD,2024-03-24 19:31:00,15.08838732,0.000136,53.2169,268.327,90.0751,270.0397,-0.00022142,-3.81e-05,0.0,0 STARLINK-3393,1 51132U 22005AE  24084.81319770 -.00003810  00000-0 -22142-3 0  9993,2 51132  53.2169 268.3270 0001360  90.0751 270.0397 15.08838732121928,6917.884,95.438,540.69,538.808,0.0
51132.0,STARLINK-3393,PAYLOAD,2024-03-25 05:03:18,15.08839832,0.0001351,53.2175,266.5384,74.9771,285.137,6.8989e-06,-1.78e-06,0.0,0 STARLINK-3393,1 51132U 22005AE  24085.21063131 -.00000178  00000-0  68989-5 0  9999,2 51132  53.2175 266.5384 0001351  74.9771 285.1370 15.08839832121980,6917.881,95.438,540.681,538.811,0.0
51132.0,STARLINK-3393,PAYLOAD,2024-03-25 19:21:47,15.08834967,0.0001527,53.2183,263.8637,68.3349,291.7805,5.7619e-05,6.29e-06,0.0,0 STARLINK-3393,1 51132U 22005AE  24085.80679570  .00000629  00000-0  57619-4 0  9991,2 51132  53.2183 263.8637 0001527  68.3349 291.7805 15.08834967120959,6917.896,95.438,540.817,538.704,0.0
51132.0,STARLINK-3393,PAYLOAD,2024-03-26 11:15:39,15.08848344,0.0004348,53.2167,260.8906,75.0445,285.1028,-0.00041076,-6.823e-05,0.0,0 STARLINK-3393,1 51132U 22005AE  24086.46920443 -.00006823  00000-0 -41076-3 0  9995,2 51132  53.2167 260.8906 0004348  75.0445 285.1028 15.08848344122177,6917.855,95.437,542.728,536.712,0.0
51132.0,STARLINK-3393,PAYLOAD,2024-03-26 19:12:35,15.0881426,0.0001428,53.2166,259.404,62.8411,297.2726,8.539e-05,1.07e-05,0.0,0 STARLINK-3393,1 51132U 22005AE  24086.80041098  .00001070  00000-0  85390-4 0  9998,2 51132  53.2166 259.4040 0001428  62.8411 297.2726 15.08814260122227,6917.959,95.439,540.812,538.836,0.0
51132.0,STARLINK-3393,PAYLOAD,2024-03-27 04:44:53,15.08831703,0.0001426,53.2173,257.6193,70.2095,289.9051,8.4562e-05,1.058e-05,0.0,0 STARLINK-3393,1 51132U 22005AE  24087.19784366  .00001058  00000-0  84562-4 0  9999,2 51132  53.2173 257.6193 0001426  70.2095 289.9051 15.08831703122289,6917.906,95.438,540.757,538.784,0.0
51132.0,STARLINK-3393,PAYLOAD,2024-03-27 11:06:26,15.0883134,0.0001294,53.217,256.4292,70.1352,289.9779,0.0001599,2.257e-05,0.0,0 STARLINK-3393,1 51132U 22005AE  24087.46280405  .00002257  00000-0  15990-3 0  9994,2 51132  53.2170 256.4292 0001294  70.1352 289.9779 15.08831340121206,6917.907,95.438,540.667,538.877,0.0
51132.0,STARLINK-3393,PAYLOAD,2024-03-27 17:27:58,15.08839399,0.0001331,53.2165,255.2401,70.5386,289.575,0.00023105,3.391e-05,0.0,0 STARLINK-3393,1 51132U 22005AE  24087.72775937  .00003391  00000-0  23105-3 0  9999,2 51132  53.2165 255.2401 0001331  70.5386 289.5750 15.08839399122367,6917.882,95.438,540.668,538.826,0.0
51132.0,STARLINK-3393,PAYLOAD,2024-03-28 04:35:40,15.08852881,0.000118,53.2161,253.1584,92.795,267.3177,0.00035396,5.352e-05,0.0,0 STARLINK-3393,1 51132U 22005AE  24088.19143522  .00005352  00000-0  35396-3 0  9994,2 51132  53.2161 253.1584 0001180  92.7950 267.3177 15.08852881122433,6917.841,95.437,540.522,538.89,0.0
51132.0,STARLINK-3393,PAYLOAD,2024-03-28 20:29:32,15.08839182,0.0001508,53.2165,250.1836,83.8316,276.2848,0.00020437,2.966e-05,0.0,0 STARLINK-3393,1 51132U 22005AE  24088.85384593  .00002966  00000-0  20437-3 0  9990,2 51132  53.2165 250.1836 0001508  83.8316 276.2848 15.08839182122539,6917.883,95.438,540.791,538.705,0.0
51132.0,STARLINK-3393,PAYLOAD,2024-03-29 20:20:19,15.08844245,0.0001566,53.2185,245.7233,87.586,272.5311,3.3324e-05,2.42e-06,0.0,0 STARLINK-3393,1 51132U 22005AE  24089.84744336  .00000242  00000-0  33324-4 0  9990,2 51132  53.2185 245.7233 0001566  87.5860 272.5311 15.08844245121563,6917.867,95.437,540.816,538.649,0.0
51132.0,STARLINK-3393,PAYLOAD,2024-03-30 10:38:47,15.08839012,0.000167,53.2192,243.0468,89.6976,270.4207,0.00014123,1.96e-05,0.0,0 STARLINK-3393,1 51132U 22005AE  24090.44360693  .00001960  00000-0  14123-3 0  9991,2 51132  53.2192 243.0468 0001670  89.6976 270.4207 15.08839012122770,6917.883,95.438,540.904,538.593,0.0
51132.0,STARLINK-3393,PAYLOAD,2024-03-30 13:49:33,15.088366,0.0001583,53.2167,242.4511,87.6262,272.4911,4.6834e-05,4.57e-06,0.0,0 STARLINK-3393,1 51132U 22005AE  24090.57608754  .00000457  00000-0  46834-4 0  9993,2 51132  53.2167 242.4511 0001583  87.6262 272.4911 15.08836600121675,6917.891,95.438,540.851,538.661,0.0
51132.0,STARLINK-3393,PAYLOAD,2024-03-30 17:00:20,15.08836517,0.0001374,53.2163,241.8564,86.7309,273.384,7.5764e-05,9.18e-06,0.0,0 STARLINK-3393,1 51132U 22005AE  24090.70856751  .00000918  00000-0  75764-4 0  9996,2 51132  53.2163 241.8564 0001374  86.7309 273.3840 15.08836517121692,6917.891,95.438,540.707,538.806,0.0
51132.0,STARLINK-3393,PAYLOAD,2024-03-31 13:40:21,15.08835581,0.000176,53.2194,237.9951,98.5712,261.548,9.8678e-05,1.283e-05,0.0,0 STARLINK-3393,1 51132U 22005AE  24091.56968954  .00001283  00000-0  98678-4 0  9995,2 51132  53.2194 237.9951 0001760  98.5712 261.5480 15.08835581122948,6917.894,95.438,540.976,538.541,0.0
